GPS BIIR-2  (PRN 13)    
1 24876C 97035A   21255.71090278 -.00000000  00000-0  00000-0 0  2556
2 24876  55.4793 166.5104 0052325  53.7736 348.5844  2.00562044    13
GPS BIIR-4  (PRN 20)    
1 26360C 00025A   21255.71090278 -.00000000  00000-0  00000-0 0  2559
2 26360  53.8378  90.3634 0055093 173.2096 315.7989  2.00565784    18
GPS BIIR-8  (PRN 16)    
1 27663C 03005A   21255.71090278  .00000000  00000-0  00000-0 0  2556
2 27663  55.7091 284.0825 0120645  37.9910  69.9418  2.00554093    15
GPS BIIR-9  (PRN 21)    
1 27704C 03010A   21255.71090278 -.00000000  00000-0  00000-0 0  2559
2 27704  54.9043  34.5720 0242484 297.4487  26.3997  2.00567197    17
GPS BIIR-10 (PRN 22)    
1 28129C 03058A   21255.71090278 -.00000000  00000-0  00000-0 0  2553
2 28129  53.6484  93.0079 0069292 307.4283 316.6474  2.00555766    15
GPS BIIR-11 (PRN 19)    
1 28190C 04009A   21255.71090278  .00000000  00000-0  00000-0 0  2557
2 28190  56.1480 344.9896 0089311 111.5716 156.3642  2.00566267    15
GPS BIIR-13 (PRN 02)    
1 28474C 04045A   21255.71090278 -.00000000  00000-0  00000-0 0  2553
2 28474  55.2370  34.6076 0204889 274.2243 265.7658  2.00554130    10
GPS BIIRM-1 (PRN 17)    
1 28874C 05038A   21255.71090278  .00000000  00000-0  00000-0 0  2559
2 28874  56.2267 342.4094 0137860 270.7548  20.8680  2.00565159    11
GPS BIIRM-2 (PRN 31)    
1 29486C 06042A   21255.71090278  .00000000  00000-0  00000-0 0  2555
2 29486  54.7575 220.3274 0101135  15.5093 189.9815  2.00570779    17
GPS BIIRM-3 (PRN 12)    
1 29601C 06052A   21255.71090278  .00000000  00000-0  00000-0 0  2555
2 29601  55.7079 283.0111 0080107  69.9035 174.1041  2.00562704    12
GPS BIIRM-4 (PRN 15)    
1 32260C 07047A   21255.71090278 -.00000000  00000-0  00000-0 0  2556
2 32260  53.2482 152.0561 0134501  58.2369 327.5658  2.00562610    15
GPS BIIRM-5 (PRN 29)    
1 32384C 07062A   21255.71090278  .00000000  00000-0  00000-0 0  2559
2 32384  56.3371 343.1359 0017923 138.7052  14.7952  2.00574666    18
GPS BIIRM-6 (PRN 07)    
1 32711C 08012A   21255.71090278  .00000000  00000-0  00000-0 0  2559
2 32711  54.5120 219.3258 0154494 228.4034 214.5657  2.00555417    13
GPS BIIRM-8 (PRN 05)    
1 35752C 09043A   21255.71090278 -.00000000  00000-0  00000-0 0  2553
2 35752  54.8655  96.7312 0058960  55.4053  41.2448  2.00573780    11
GPS BIIF-1  (PRN 25)    
1 36585C 10022A   21255.71090278  .00000000  00000-0  00000-0 0  2556
2 36585  54.9849 278.7233 0096711  54.6113 165.0645  2.00575229    14
GPS BIIF-2  (PRN 01)    
1 37753C 11036A   21255.71090278 -.00000000  00000-0  00000-0 0  2551
2 37753  56.4670  39.5370 0108991  50.1452 251.0023  2.00563499    19
GPS BIIF-3  (PRN 24)    
1 38833C 12053A   21255.71090278  .00000000  00000-0  00000-0 0  2550
2 38833  53.5628 214.7367 0113955  42.4283 272.2151  2.00558214    11
GPS BIIF-4  (PRN 27)    
1 39166C 13023A   21255.71090278  .00000000  00000-0  00000-0 0  2558
2 39166  55.8657 338.8898 0093612  35.3191  17.2567  2.00567263    13
GPS BIIF-5  (PRN 30)    
1 39533C 14008A   21255.71090278  .00000000  00000-0  00000-0 0  2550
2 39533  53.6635 220.2150 0054530 205.7050 206.3421  2.00565716    12
GPS BIIF-6  (PRN 06)    
1 39741C 14026A   21255.71090278 -.00000000  00000-0  00000-0 0  2552
2 39741  56.4342  39.0641 0023637 299.0908 272.0978  2.00575465    11
GPS BIIF-7  (PRN 09)    
1 40105C 14045A   21255.71090278 -.00000000  00000-0  00000-0 0  2559
2 40105  54.6387 157.8959 0019288 105.4343  41.6351  2.00558529    14
GPS BIIF-8  (PRN 03)    
1 40294C 14068A   21255.71090278 -.00000000  00000-0  00000-0 0  2553
2 40294  55.6115  98.9254 0036677  53.9040 188.6000  2.00551909    16
GPS BIIF-9  (PRN 26)    
1 40534C 15013A   21255.71090278  .00000000  00000-0  00000-0 0  2550
2 40534  53.8903 276.1974 0060406  14.6072 127.6995  2.00569339    15
GPS BIIF-10 (PRN 08)    
1 40730C 15033A   21255.71090278  .00000000  00000-0  00000-0 0  2550
2 40730  55.3714 337.8504 0064663   1.1869  25.6208  2.00566200    16
GPS BIIF-11 (PRN 10)    
1 41019C 15062A   21255.71090278 -.00000000  00000-0  00000-0 0  2554
2 41019  55.6033  98.7626 0070505 213.4078 136.5955  2.00563344    11
GPS BIIF-12 (PRN 32)    
1 41328C 16007A   21255.71090278 -.00000000  00000-0  00000-0 0  2557
2 41328  54.8637 158.4977 0052463 225.7544  58.1699  2.00557966    12
GPS BIII-1  (PRN 04)    
1 43873C 18109A   21255.71090278 -.00000000  00000-0  00000-0 0  2559
2 43873  55.0448 160.8581 0014206 194.1033 342.5755  2.00560288    19
GPS BIII-2  (PRN 18)    
1 44506C 19056A   21255.71090278 -.00000000  00000-0  00000-0 0  2555
2 44506  55.5356  40.1172 0018989 175.4734 262.0244  2.00566560    12
GPS BIII-3  (PRN 23)    
1 45854C 20041A   21255.71090278 -.00000000  00000-0  00000-0 0  2558
2 45854  55.3179  97.3847 0015800 161.2148 218.7387  2.00563845    13
GPS BIII-4  (PRN 14)    
1 46826C 20078A   21255.71090278  .00000000  00000-0  00000-0 0  2557
2 46826  54.7598 281.3585 0010922 190.4625 158.5320  2.00566789    17
GPS BIII-5  (PRN 11)    
1 48859C 21054A   21255.71090278 -.00000000  00000-0  00000-0 0  2551
2 48859  55.0349  42.2530 0003165 139.4711  40.8079  2.00560654    16
